     3.01           N: GNSS NAV DATA    G: GPS              RINEX VERSION / TYPE
JPS2RIN v.2.0.99    JAVAD GNSS          20150707 012152 UTC PGM / RUN BY / DATE
    17                                                      LEAP SECONDS
GPSA   9.3132D-09  2.2352D-08 -5.9605D-08 -1.1921D-07       IONOSPHERIC CORR
GPSB   1.0035D+05  1.4746D+05 -6.5536D+04 -4.5875D+05       IONOSPHERIC CORR
GPUT  9.3132257462D-10 4.440892099D-15 319488 1852          TIME SYSTEM CORR
                                                            END OF HEADER
G07 2015 07 06 10 00 00 4.728874191642D-04 2.160049916711D-12 0.000000000000D+00
     1.600000000000D+01-5.000000000000D+00 4.391611499675D-09 1.240309274465D+00
     1.117587089539D-08 8.626738097519D-03 1.003406941891D-05 5.153711347580D+03
     1.224000000000D+05-2.421438694000D-08 4.819402941763D-01 7.823109626770D-08
     9.701644710387D-01 1.928125000000D+02-2.741430534808D+00-8.038906281285D-09
    -5.339508126231D-10 1.000000000000D+00 1.852000000000D+03 0.000000000000D+00
     2.000000000000D+00 0.000000000000D+00-1.117587089539D-08 1.600000000000D+01
     1.152300000000D+05 4.000000000000D+00
G09 2015 07 06 10 00 00-4.876870661974D-06-3.069544618484D-12 0.000000000000D+00
     1.300000000000D+01 1.393750000000D+01 5.174858410767D-09-3.103697078836D+00
     7.990747690201D-07 4.502009833232D-04 5.116686224937D-06 5.153775100708D+03
     1.224000000000D+05-3.166496753693D-08-5.942244208609D-01 2.048909664154D-08
     9.571188859005D-01 2.811250000000D+02 2.739421632295D+00-8.396064015482D-09
    -2.357241045694D-11 1.000000000000D+00 1.852000000000D+03 0.000000000000D+00
     2.000000000000D+00 0.000000000000D+00 4.656612873077D-10 1.300000000000D+01
     1.152300000000D+05 4.000000000000D+00
G10 2015 07 06 10 00 00-1.815049909055D-04-1.364242052659D-12 0.000000000000D+00
     5.200000000000D+01 3.840625000000D+01 5.022352058265D-09-1.127233864169D+00
     2.305954694748D-06 1.480178104248D-02 8.871778845787D-06 5.153694997787D+03
     1.224000000000D+05 2.533197402954D-07-1.629847253520D+00 2.179294824600D-07
     9.408660518305D-01 1.957187500000D+02 9.367794091940D-01-8.315703525287D-09
     4.607334771129D-10 1.000000000000D+00 1.852000000000D+03 0.000000000000D+00
     2.000000000000D+00 0.000000000000D+00-2.793967723846D-09 5.200000000000D+01
     1.152300000000D+05 4.000000000000D+00
G13 2015 07 06 10 00 00-1.297066919506D-04-3.410605131648D-12 0.000000000000D+00
     4.000000000000D+00 1.250000000000D+00 4.694481258273D-09 2.005966928094D+00
    -2.421438694000D-08 4.951805225573D-03 5.299225449562D-06 5.153676275253D+03
     1.224000000000D+05 6.519258022308D-08-4.785286375528D-01-6.705522537231D-08
     9.738854748563D-01 2.838750000000D+02 2.098231475832D+00-8.123909822024D-09
    -2.539391490134D-10 1.000000000000D+00 1.852000000000D+03 0.000000000000D+00
     2.000000000000D+00 0.000000000000D+00-1.117587089539D-08 4.000000000000D+00
     1.183200000000D+05 4.000000000000D+00
G16 2015 07 06 10 00 00-1.114993356168D-04 3.979039320257D-12 0.000000000000D+00
     2.500000000000D+01 7.650000000000D+01 3.767656938034D-09-1.351844742583D+00
     3.978610038757D-06 8.143344544806D-03 8.093193173409D-06 5.153585628510D+03
     1.224000000000D+05 9.685754776001D-08 1.570276298917D+00-1.434236764908D-07
     9.901908525550D-01 2.398750000000D+02 3.199549564825D-01-7.817111328350D-09
     3.060841782060D-10 1.000000000000D+00 1.852000000000D+03 0.000000000000D+00
     2.000000000000D+00 0.000000000000D+00-1.024454832077D-08 2.500000000000D+01
     1.152300000000D+05 4.000000000000D+00
G23 2015 07 06 10 00 00-1.192786730826D-04-2.387423592154D-12 0.000000000000D+00
     1.400000000000D+01 1.259375000000D+01 5.312006980698D-09 2.814930997449D+00
     6.295740604401D-07 1.038182037883D-02 5.315989255905D-06 5.153589519501D+03
     1.224000000000D+05-1.266598701477D-07-5.859760908162D-01-1.024454832077D-07
     9.481402656878D-01 2.739687500000D+02-2.659249683898D+00-8.337490147073D-09
    -5.821671067396D-11 1.000000000000D+00 1.852000000000D+03 0.000000000000D+00
     2.000000000000D+00 0.000000000000D+00-2.002343535423D-08 1.400000000000D+01
     1.152300000000D+05 4.000000000000D+00
G28 2015 07 06 10 00 00 4.516961053014D-04 2.614797267597D-12 0.000000000000D+00
     7.700000000000D+01 7.059375000000D+01 3.813373128012D-09-1.462709121900D+00
     3.844499588013D-06 1.953242265154D-02 7.171183824539D-06 5.153701473236D+03
     1.224000000000D+05 6.891787052155D-08 1.575593320026D+00 4.805624485016D-07
     9.888131640830D-01 2.588437500000D+02-1.660893859833D+00-7.883185509176D-09
     9.893269237232D-11 1.000000000000D+00 1.852000000000D+03 0.000000000000D+00
     2.000000000000D+00 0.000000000000D+00-1.117587089539D-08 7.700000000000D+01
     1.157400000000D+05 4.000000000000D+00
G30 2015 07 06 10 00 00-1.947302371264D-05 7.617018127348D-12 0.000000000000D+00
     6.700000000000D+01-4.156250000000D+00 4.627335604244D-09 1.298358061345D+00
    -1.005828380585D-07 1.572854816914D-03 9.823590517044D-06 5.153727899551D+03
     1.224000000000D+05 1.862645149231D-09 5.306948143235D-01-6.146728992462D-08
     9.558947599393D-01 1.839062500000D+02 2.966253903536D+00-8.125338452961D-09
    -4.303750697063D-10 1.000000000000D+00 1.852000000000D+03 0.000000000000D+00
     2.000000000000D+00 0.000000000000D+00 3.259629011154D-09 6.700000000000D+01
     1.152300000000D+05 4.000000000000D+00
G20 2015 07 06 11 59 44 3.360360860825D-04 3.296918293927D-12 0.000000000000D+00
     8.000000000000D+00 3.946875000000D+01 5.208431237782D-09-1.889797751810D+00
     2.086162567139D-06 4.766385769472D-03 9.499490261078D-06 5.153608144760D+03
     1.295840000000D+05 6.519258022308D-08-1.711102669769D+00-1.490116119385D-08
     9.258841717293D-01 1.706250000000D+02 1.176172145845D+00-8.316774998490D-09
     4.671623163285D-10 1.000000000000D+00 1.852000000000D+03 0.000000000000D+00
     2.000000000000D+00 0.000000000000D+00-8.381903171539D-09 8.000000000000D+00
     1.226400000000D+05 4.000000000000D+00
G24 2015 07 06 11 59 44-8.530914783478D-07-6.821210263297D-13 0.000000000000D+00
     1.300000000000D+01-3.531250000000D+00 4.646264964157D-09 3.124018633333D+00
    -2.402812242508D-07 3.252237918787D-03 9.730458259583D-06 5.153672378540D+03
     1.295840000000D+05-1.005828380585D-07 4.403480673388D-01 2.607703208923D-08
     9.533527159501D-01 1.887187500000D+02 3.495416949003D-01-8.022119867778D-09
    -3.743013054375D-10 1.000000000000D+00 1.852000000000D+03 0.000000000000D+00
     2.000000000000D+00 0.000000000000D+00 2.328306436539D-09 1.300000000000D+01
     1.291200000000D+05 4.000000000000D+00
G02 2015 07 06 12 00 00 5.765361711383D-04 2.387423592154D-12 0.000000000000D+00
     1.020000000000D+02-9.543750000000D+01 4.586976780280D-09-2.860722243901D+00
    -4.889443516731D-06 1.465030247346D-02 9.657815098763D-06 5.153592399597D+03
     1.296000000000D+05 4.097819328308D-08-2.716295308351D+00-1.862645149231D-07
     9.413735425009D-01 1.801250000000D+02-2.252038416817D+00-7.915686862988D-09
    -3.928735076157D-11 1.000000000000D+00 1.852000000000D+03 0.000000000000D+00
     2.000000000000D+00 0.000000000000D+00-2.048909664154D-08 1.020000000000D+02
     1.224300000000D+05 4.000000000000D+00
G05 2015 07 06 12 00 00-2.211388200521D-04 4.320099833421D-12 0.000000000000D+00
     9.600000000000D+01 3.425000000000D+01 4.789842373304D-09-3.619345537869D-01
     1.978129148483D-06 4.177592461929D-03 9.384006261826D-06 5.153594242096D+03
     1.296000000000D+05 5.215406417847D-08-1.644769012077D+00-1.676380634308D-08
     9.460795510051D-01 1.890937500000D+02 3.708726380026D-01-8.227128407207D-09
     4.668051585943D-10 1.000000000000D+00 1.852000000000D+03 0.000000000000D+00
     2.000000000000D+00 0.000000000000D+00-1.071020960808D-08 9.600000000000D+01
     1.224300000000D+05 4.000000000000D+00
G06 2015 07 06 12 00 00 1.038983464241D-05 8.299139153678D-12 0.000000000000D+00
     4.500000000000D+01-8.828125000000D+01 4.229461888350D-09-1.395058217660D+00
    -4.447996616364D-06 1.361011527479D-04 9.834766387939D-06 5.153783788681D+03
     1.296000000000D+05-9.872019290924D-08-2.686350150615D+00-1.136213541031D-07
     9.625975901791D-01 1.930000000000D+02-3.125253545389D+00-7.888900032923D-09
    -1.414344627416D-10 1.000000000000D+00 1.852000000000D+03 0.000000000000D+00
     2.000000000000D+00 0.000000000000D+00 4.190951585770D-09 4.500000000000D+01
     1.224000000000D+05 4.000000000000D+00
G07 2015 07 06 12 00 00 4.729032516479D-04 2.160049916711D-12 0.000000000000D+00
     2.400000000000D+01-1.475000000000D+01 4.320179952836D-09 2.290263265172D+00
    -6.724148988724D-07 8.626735303551D-03 1.059472560883D-05 5.153714542389D+03
     1.296000000000D+05-2.067536115646D-07 4.818819588550D-01-3.911554813385D-08
     9.701614515757D-01 1.836250000000D+02-2.741228696001D+00-7.909258023772D-09
    -4.053740283126D-10 1.000000000000D+00 1.852000000000D+03 0.000000000000D+00
     2.000000000000D+00 0.000000000000D+00-1.117587089539D-08 2.400000000000D+01
     1.224300000000D+05 4.000000000000D+00
G09 2015 07 06 12 00 00-4.898756742477D-06-3.069544618484D-12 0.000000000000D+00
     1.400000000000D+01 1.325000000000D+01 5.153071788981D-09-2.054165559852D+00
     6.742775440216D-07 4.506990080699D-04 5.489215254784D-06 5.153774030685D+03
     1.296000000000D+05-3.539025783539D-08-5.942849447076D-01-1.303851604462D-08
     9.571186781662D-01 2.771875000000D+02 2.740014089248D+00-8.411421798052D-09
    -1.500062483624D-11 1.000000000000D+00 1.852000000000D+03 0.000000000000D+00
     2.000000000000D+00 0.000000000000D+00 4.656612873077D-10 1.400000000000D+01
     1.224300000000D+05 4.000000000000D+00
